TEVEL2-9                
1 63237U 25052AD  26068.70229538  .00018694  00000+0  67240-3 0  9992
2 63237  97.4057 324.3929 0007990 124.2475 235.9522 15.28633834 54816
STARLINK-36516          
1 67455U 26008L   26068.42242699  .00025226  00000+0  92264-3 0  9995
2 67455  42.9992 206.5347 0002006 299.4788  60.5863 15.27594547  9530
